STARLINK-36769
1 67871U 26034X   26092.83335647 -.01825625  00000+0 -57707-1 0  9999
2 67871  53.1591  91.9795 0001135  96.9151 267.3376 15.35672913  6008
